{"type": "FeatureCollection", "features": [ {"type": "Feature", "properties": {"norad_id": 30859, "name": "FENGYUN 1C DEB", "group": "fengyun-1c-debris", "lat": -57.41931115889808, "lon": -163.84631743915693, "alt_km": 758.5142644760508, "timestamp": "2025-12-06T14:35:37.405632+00:00", "meta": {"OBJECT_NAME": "FENGYUN 1C DEB", "OBJECT_ID": "1999-025AWV", "EPOCH": "2025-12-06T06:52:04.042560", "MEAN_MOTION": 14.48869783, "ECCENTRICITY": 0.00315123, "INCLINATION": 98.9214, "RA_OF_ASC_NODE": 30.043, "ARG_OF_PERICENTER": 51.0047, "MEAN_ANOMALY": 309.3943, "EPHEMERIS_TYPE": 0, "CLASSIFICATION_TYPE": "U", "NORAD_CAT_ID": 30859, "ELEMENT_SET_NO": 999, "REV_AT_EPOCH": 96941, "BSTAR": 0.0050437593, "MEAN_MOTION_DOT": 0.00019198, "MEAN_MOTION_DDOT": 0}, "tle": {"line1": "1 30859U 99025AWV 25340.28615790  .00019198  00000+0  50438-2 0  9991", "line2": "2 30859  98.9214  30.0430 0031512  51.0047 309.3943 14.48869783969417"}}, "geometry": {"type": "Point", "coordinates": [-163.84631743915693, -57.41931115889808]}}, {"type": "Feature", "properties": {"norad_id": 30860, "name": "FENGYUN 1C DEB", "group": "fengyun-1c-debris", "lat": -69.74212135745643, "lon": -151.16688878898023, "alt_km": 794.776757448064, "timestamp": "2025-12-06T14:35:37.405642+00:00", "meta": {"OBJECT_NAME": "FENGYUN 1C DEB", "OBJECT_ID": "1999-025AWW", "EPOCH": "2025-12-05T10:27:44.695872", "MEAN_MOTION": 14.25410109, "ECCENTRICITY": 0.00399994, "INCLINATION": 98.9058, "RA_OF_ASC_NODE": 52.7842, "ARG_OF_PERICENTER": 207.6777, "MEAN_ANOMALY": 152.2273, "EPHEMERIS_TYPE": 0, "CLASSIFICATION_TYPE": "U", "NORAD_CAT_ID": 30860, "ELEMENT_SET_NO": 999, "REV_AT_EPOCH": 96412, "BSTAR": 0.0033760813, "MEAN_MOTION_DOT": 7.994e-05, "MEAN_MOTION_DDOT": 0}, "tle": {"line1": "1 30860U 99025AWW 25339.43593398  .00007994  00000+0  33761-2 0  9998", "line2": "2 30860  98.9058  52.7842 0039999 207.6777 152.2273 14.25410109964122"}}, "geometry": {"type": "Point", "coordinates": [-151.16688878898023, -69.74212135745643]}}, {"type": "Feature", "properties": {"norad_id": 30862, "name": "FENGYUN 1C DEB", "group": "fengyun-1c-debris", "lat": 25.435336855031558, "lon": 66.75609461242368, "alt_km": 782.6815007556661, "timestamp": "2025-12-06T14:35:37.405652+00:00", "meta": {"OBJECT_NAME": "FENGYUN 1C DEB", "OBJECT_ID": "1999-025AWY", "EPOCH": "2025-12-05T05:19:17.657760", "MEAN_MOTION": 14.42799396, "ECCENTRICITY": 0.00537503, "INCLINATION": 98.9598, "RA_OF_ASC_NODE": 69.6029, "ARG_OF_PERICENTER": 184.2922, "MEAN_ANOMALY": 205.0477, "EPHEMERIS_TYPE": 0, "CLASSIFICATION_TYPE": "U", "NORAD_CAT_ID": 30862, "ELEMENT_SET_NO": 999, "REV_AT_EPOCH": 96611, "BSTAR": 0.0068288017, "MEAN_MOTION_DOT": 0.00023201, "MEAN_MOTION_DDOT": 0}, "tle": {"line1": "1 30862U 99025AWY 25339.22173215  .00023201  00000+0  68288-2 0  9990", "line2": "2 30862  98.9598  69.6029 0053750 184.2922 205.0477 14.42799396966111"}}, "geometry": {"type": "Point", "coordinates": [66.75609461242368, 25.435336855031558]}}, {"type": "Feature", "properties": {"norad_id": 30863, "name": "FENGYUN 1C DEB", "group": "fengyun-1c-debris", "lat": 76.83594915158508, "lon": 129.742533091015, "alt_km": 2188.8084805840363, "timestamp": "2025-12-06T14:35:37.405662+00:00", "meta": {"OBJECT_NAME": "FENGYUN 1C DEB", "OBJECT_ID": "1999-025AWZ", "EPOCH": "2025-12-05T08:13:20.266752", "MEAN_MOTION": 12.40462161, "ECCENTRICITY": 0.08784359, "INCLINATION": 99.1209, "RA_OF_ASC_NODE": 172.1545, "ARG_OF_PERICENTER": 265.9824, "MEAN_ANOMALY": 285.4303, "EPHEMERIS_TYPE": 0, "CLASSIFICATION_TYPE": "U", "NORAD_CAT_ID": 30863, "ELEMENT_SET_NO": 999, "REV_AT_EPOCH": 59648, "BSTAR": 0.0063870204, "MEAN_MOTION_DOT": 3.332e-05, "MEAN_MOTION_DDOT": 0}, "tle": {"line1": "1 30863U 99025AWZ 25339.34259568  .00003332  00000+0  63870-2 0  9995", "line2": "2 30863  99.1209 172.1545 0878435 265.9824 285.4303 12.40462161596482"}}, "geometry": {"type": "Point", "coordinates": [129.742533091015, 76.83594915158508]}}, {"type": "Feature", "properties": {"norad_id": 30867, "name": "FENGYUN 1C DEB", "group": "fengyun-1c-debris", "lat": -78.3414038087448, "lon": 25.899147391552514, "alt_km": 820.3656045010985, "timestamp": "2025-12-06T14:35:37.405673+00:00", "meta": {"OBJECT_NAME": "FENGYUN 1C DEB", "OBJECT_ID": "1999-025AXD", "EPOCH": "2025-12-06T05:40:03.205344", "MEAN_MOTION": 14.27873836, "ECCENTRICITY": 0.00546829, "INCLINATION": 97.877, "RA_OF_ASC_NODE": 247.7039, "ARG_OF_PERICENTER": 13.9753, "MEAN_ANOMALY": 137.2609, "EPHEMERIS_TYPE": 0, "CLASSIFICATION_TYPE": "U", "NORAD_CAT_ID": 30867, "ELEMENT_SET_NO": 999, "REV_AT_EPOCH": 96444, "BSTAR": 0.0040029382, "MEAN_MOTION_DOT": 0.0001004, "MEAN_MOTION_DDOT": 0}, "tle": {"line1": "1 30867U 99025AXD 25340.23614821  .00010040  00000+0  40029-2 0  9991", "line2": "2 30867  97.8770 247.7039 0054682  13.9753 137.2609 14.27873836964443"}}, "geometry": {"type": "Point", "coordinates": [25.899147391552514, -78.3414038087448]}}, {"type": "Feature", "properties": {"norad_id": 30868, "name": "FENGYUN 1C DEB", "group": "fengyun-1c-debris", "lat": 71.09910875262342, "lon": 64.24362159408146, "alt_km": 901.9236334667594, "timestamp": "2025-12-06T14:35:37.405683+00:00", "meta": {"OBJECT_NAME": "FENGYUN 1C DEB", "OBJECT_ID": "1999-025AXE", "EPOCH": "2025-12-05T03:05:15.756576", "MEAN_MOTION": 14.11114043, "ECCENTRICITY": 0.01348835, "INCLINATION": 98.2639, "RA_OF_ASC_NODE": 217.7649, "ARG_OF_PERICENTER": 234.9925, "MEAN_ANOMALY": 282.12, "EPHEMERIS_TYPE": 0, "CLASSIFICATION_TYPE": "U", "NORAD_CAT_ID": 30868, "ELEMENT_SET_NO": 999, "REV_AT_EPOCH": 96603, "BSTAR": 0.00030241589, "MEAN_MOTION_DOT": 5.53e-06, "MEAN_MOTION_DDOT": 0}, "tle": {"line1": "1 30868U 99025AXE 25339.12865459  .00000553  00000+0  30242-3 0  9998", "line2": "2 30868  98.2639 217.7649 0134883 234.9925 282.1200 14.11114043966030"}}, "geometry": {"type": "Point", "coordinates": [64.24362159408146, 71.09910875262342]}}, {"type": "Feature", "properties": {"norad_id": 30872, "name": "FENGYUN 1C DEB", "group": "fengyun-1c-debris", "lat": 12.169546290912196, "lon": 30.535576296906328, "alt_km": 737.485734689617, "timestamp": "2025-12-06T14:35:37.405693+00:00", "meta": {"OBJECT_NAME": "FENGYUN 1C DEB", "OBJECT_ID": "1999-025AXJ", "EPOCH": "2025-12-04T23:03:53.177760", "MEAN_MOTION": 14.39362786, "ECCENTRICITY": 0.0041181, "INCLINATION": 99.194, "RA_OF_ASC_NODE": 30.7721, "ARG_OF_PERICENTER": 51.7666, "MEAN_ANOMALY": 71.2387, "EPHEMERIS_TYPE": 0, "CLASSIFICATION_TYPE": "U", "NORAD_CAT_ID": 30872, "ELEMENT_SET_NO": 999, "REV_AT_EPOCH": 97624, "BSTAR": 0.0017947, "MEAN_MOTION_DOT": 5.59e-05, "MEAN_MOTION_DDOT": 0}, "tle": {"line1": "1 30872U 99025AXJ 25338.96103215  .00005590  00000+0  17947-2 0  9991", "line2": "2 30872  99.1940  30.7721 0041181  51.7666  71.2387 14.39362786976245"}}, "geometry": {"type": "Point", "coordinates": [30.535576296906328, 12.169546290912196]}}, {"type": "Feature", "properties": {"norad_id": 30873, "name": "FENGYUN 1C DEB", "group": "fengyun-1c-debris", "lat": 26.377272076938915, "lon": -23.22228858396596, "alt_km": 813.2262228759355, "timestamp": "2025-12-06T14:35:37.405703+00:00", "meta": {"OBJECT_NAME": "FENGYUN 1C DEB", "OBJECT_ID": "1999-025AXK", "EPOCH": "2025-12-06T06:00:31.517856", "MEAN_MOTION": 14.19127813, "ECCENTRICITY": 0.01079499, "INCLINATION": 98.6116, "RA_OF_ASC_NODE": 340.7399, "ARG_OF_PERICENTER": 307.6406, "MEAN_ANOMALY": 51.5012, "EPHEMERIS_TYPE": 0, "CLASSIFICATION_TYPE": "U", "NORAD_CAT_ID": 30873, "ELEMENT_SET_NO": 999, "REV_AT_EPOCH": 97100, "BSTAR": 0.00042164978, "MEAN_MOTION_DOT": 8.91e-06, "MEAN_MOTION_DDOT": 0}, "tle": {"line1": "1 30873U 99025AXK 25340.25036479  .00000891  00000+0  42165-3 0  9994", "line2": "2 30873  98.6116 340.7399 0107949 307.6406  51.5012 14.19127813971003"}}, "geometry": {"type": "Point", "coordinates": [-23.22228858396596, 26.377272076938915]}}, {"type": "Feature", "properties": {"norad_id": 30874, "name": "FENGYUN 1C DEB", "group": "fengyun-1c-debris", "lat": -68.19672925742528, "lon": 33.39809651315367, "alt_km": 852.5310932685088, "timestamp": "2025-12-06T14:35:37.405713+00:00", "meta": {"OBJECT_NAME": "FENGYUN 1C DEB", "OBJECT_ID": "1999-025AXL", "EPOCH": "2025-12-06T01:31:32.067840", "MEAN_MOTION": 14.19630283, "ECCENTRICITY": 0.00423346, "INCLINATION": 98.4909, "RA_OF_ASC_NODE": 10.949, "ARG_OF_PERICENTER": 59.7588, "MEAN_ANOMALY": 329.6079, "EPHEMERIS_TYPE": 0, "CLASSIFICATION_TYPE": "U", "NORAD_CAT_ID": 30874, "ELEMENT_SET_NO": 999, "REV_AT_EPOCH": 96926, "BSTAR": 0.00074384793, "MEAN_MOTION_DOT": 1.544e-05, "MEAN_MOTION_DDOT": 0}, "tle": {"line1": "1 30874U 99025AXL 25340.06356560  .00001544  00000+0  74385-3 0  9995", "line2": "2 30874  98.4909  10.9490 0042334  59.7588 329.6079 14.19630283969269"}}, "geometry": {"type": "Point", "coordinates": [33.39809651315367, -68.19672925742528]}}, {"type": "Feature", "properties": {"norad_id": 30876, "name": "FENGYUN 1C DEB", "group": "fengyun-1c-debris", "lat": 80.3305825578974, "lon": -99.59936515351501, "alt_km": 931.9276343450492, "timestamp": "2025-12-06T14:35:37.405723+00:00", "meta": {"OBJECT_NAME": "FENGYUN 1C DEB", "OBJECT_ID": "1999-025AXN", "EPOCH": "2025-12-06T05:40:39.462240", "MEAN_MOTION": 13.99156614, "ECCENTRICITY": 0.00668078, "INCLINATION": 98.8092, "RA_OF_ASC_NODE": 325.5651, "ARG_OF_PERICENTER": 295.5551, "MEAN_ANOMALY": 79.8729, "EPHEMERIS_TYPE": 0, "CLASSIFICATION_TYPE": "U", "NORAD_CAT_ID": 30876, "ELEMENT_SET_NO": 999, "REV_AT_EPOCH": 95619, "BSTAR": 0.00045002882, "MEAN_MOTION_DOT": 6.22e-06, "MEAN_MOTION_DDOT": 0}, "tle": {"line1": "1 30876U 99025AXN 25340.23656785  .00000622  00000+0  45003-3 0  9999", "line2": "2 30876  98.8092 325.5651 0066807 295.5551  79.8729 13.99156614956195"}}, "geometry": {"type": "Point", "coordinates": [-99.59936515351501, 80.3305825578974]}}]}